APRIZESAT 2             
1 28366U 04025A   22302.19774898  .00000183  00000+0  71850-4 0  9994
2 28366  98.1433 164.3737 0106336 293.1657  65.8356 14.36861141961024
SAUDICOMSAT 1           
1 28369U 04025D   22301.83785052  .00000411  00000+0  11054-3 0  9994
2 28369  98.4589 264.4277 0034394 125.2249 235.2174 14.52890878971219
SAUDICOMSAT 2           
1 28370U 04025E   22301.86101273  .00000426  00000+0  12590-3 0  9998
2 28370  98.5506 263.7980 0056861 318.6307  41.0585 14.47785086967953
APRIZESAT 1             
1 28372U 04025G   22301.86765271  .00000266  00000+0  80382-4 0  9991
2 28372  98.5116 263.8984 0045301 228.7926 130.9359 14.49875017969485
NANOSAT-1               
1 28493U 04049B   22301.75712667  .00000910  00000+0  14558-3 0  9997
2 28493  98.1177  42.6760 0003705 213.8499 146.2473 14.74187440959502
SAUDICOMSAT 7           
1 31119U 07012C   22301.79855827  .00000747  00000+0  15410-3 0  9995
2 31119  98.1984 246.4891 0060472  34.6965 325.8157 14.62220558828196
SAUDICOMSAT 6           
1 31121U 07012E   22301.83550910  .00000478  00000+0  10791-3 0  9996
2 31121  98.2379 241.7951 0076967 137.0417 223.6828 14.58991852826464
SAUDICOMSAT 5           
1 31124U 07012H   22301.84460560  .00000837  00000+0  16640-3 0  9999
2 31124  98.1679 248.0004 0050818 340.1405  19.7818 14.63963874829105
SAUDICOMSAT 3           
1 31125U 07012J   22301.80511241  .00000844  00000+0  16189-3 0  9995
2 31125  98.1339 249.3019 0041525 284.3741  75.2854 14.65811034830040
SAUDICOMSAT 4           
1 31127U 07012L   22301.73340375  .00000612  00000+0  13130-3 0  9993
2 31127  98.2208 244.8373 0068919  83.3214 277.5824 14.60723746827338
APRIZESAT 4             
1 35684U 09041D   22302.26039459  .00000703  00000+0  99656-4 0  9995
2 35684  98.3069 320.4787 0045382 282.8710  76.7433 14.79801615714907
APRIZESAT 3             
1 35686U 09041F   22301.77773348  .00001255  00000+0  13603-3 0  9994
2 35686  98.1038  31.4010 0072983 110.3194 250.5884 14.88186149718431
AISSAT 1                
1 36797U 10035C   22301.80067583  .00001587  00000+0  18167-3 0  9992
2 36797  98.2373 130.7122 0012112  95.8519 264.4077 14.87439146666269
S-NET D                 
1 43186U 18014G   22301.74508160  .00003036  00000+0  25898-3 0  9991
2 43186  97.6453 204.8798 0010002 199.4010 160.6833 14.98418722258876
S-NET B                 
1 43187U 18014H   22301.74540799  .00003110  00000+0  26521-3 0  9993
2 43187  97.6449 204.8251 0010010 199.1819 160.9028 14.98416371258876
S-NET A                 
1 43188U 18014J   22302.27994680  .00003500  00000+0  29779-3 0  9996
2 43188  97.6457 205.4201 0010027 197.0057 163.0831 14.98420951258951
S-NET C                 
1 43189U 18014K   22301.74668590  .00003175  00000+0  27072-3 0  9998
2 43189  97.6450 204.8131 0009917 198.7595 161.3263 14.98413372257421
SALSAT                  
1 46495U 20068K   22301.75525098  .00002687  00000+0  19254-3 0  9999
2 46495  97.7418 243.2132 0016156 178.7645 181.3624 15.05153913114239
